NORAD_CAT_ID,OBJECT_NAME,OBJECT_TYPE,EPOCH,MEAN_MOTION,ECCENTRICITY,INCLINATION,RA_OF_ASC_NODE,ARG_OF_PERICENTER,MEAN_ANOMALY,BSTAR,MEAN_MOTION_DOT,MEAN_MOTION_DDOT,TLE_LINE0,TLE_LINE1,TLE_LINE2,SEMIMAJOR_AXIS,PERIOD,APOGEE,PERIGEE,DECAYED
54181.0,STARLINK-5227,PAYLOAD,2023-04-17 21:57:00,15.08883903,0.0001543,53.2176,67.9454,103.1987,256.9177,0.0026852,0.00042758,0.0,0 STARLINK-5227,1 54181U 22141AA  23107.91458612  .00042758  00000-0  26852-2 0  9999,2 54181  53.2176  67.9454 0001543 103.1987 256.9177 15.08883903 26327,6917.746,95.435,540.679,538.544,0.0
54181.0,STARLINK-5227,PAYLOAD,2023-04-18 07:29:18,15.08863631,0.0001062,53.217,66.1634,102.5717,257.5394,0.0012222,0.00019229,0.0,0 STARLINK-5227,1 54181U 22141AA  23108.31202189  .00019229  00000-0  12222-2 0  9993,2 54181  53.2170  66.1634 0001062 102.5717 257.5394 15.08863631 26382,6917.808,95.436,540.408,538.938,0.0
54181.0,STARLINK-5227,PAYLOAD,2023-04-18 20:12:25,15.0883284,0.0002081,53.217,63.7814,81.8141,278.3087,0.0014224,0.00022418,0.0,0 STARLINK-5227,1 54181U 22141AA  23108.84195719  .00022418  00000-0  14224-2 0  9999,2 54181  53.2170  63.7814 0002081  81.8141 278.3087 15.08832840 26699,6917.902,95.438,541.207,538.328,0.0
54181.0,STARLINK-5227,PAYLOAD,2023-04-19 05:44:43,15.08852667,0.0001088,53.2162,61.9959,112.2447,247.8661,0.0023557,0.00037415,0.0,0 STARLINK-5227,1 54181U 22141AA  23109.23939559  .00037415  00000-0  23557-2 0  9993,2 54181  53.2162  61.9959 0001088 112.2447 247.8661 15.08852667 26524,6917.842,95.437,540.459,538.954,0.0
54181.0,STARLINK-5227,PAYLOAD,2023-04-20 05:35:30,15.08869778,0.0001156,53.2163,57.5373,108.3483,251.7635,0.0010577,0.00016599,0.0,0 STARLINK-5227,1 54181U 22141AA  23110.23298706  .00016599  00000-0  10577-2 0  9995,2 54181  53.2163  57.5373 0001156 108.3483 251.7635 15.08869778 26670,6917.789,95.436,540.454,538.855,0.0
54181.0,STARLINK-5227,PAYLOAD,2023-04-21 02:15:30,15.08853666,0.0001442,53.2173,53.671,102.2703,257.845,0.00055696,8.59e-05,0.0,0 STARLINK-5227,1 54181U 22141AA  23111.09410741  .00008590  00000-0  55696-3 0  9999,2 54181  53.2173  53.6710 0001442 102.2703 257.8450 15.08853666 27031,6917.839,95.437,540.701,538.706,0.0
54181.0,STARLINK-5227,PAYLOAD,2023-04-21 13:23:13,15.08840182,0.0001119,53.2168,51.59,83.8942,276.2177,0.00027473,4.087e-05,0.0,0 STARLINK-5227,1 54181U 22141AA  23111.55778938  .00004087  00000-0  27473-3 0  9994,2 54181  53.2168  51.5900 0001119  83.8942 276.2177 15.08840182 26874,6917.88,95.438,540.519,538.971,0.0
54181.0,STARLINK-5227,PAYLOAD,2023-04-21 19:44:45,15.08845139,0.000109,53.217,50.4008,86.3962,273.7155,0.00027263,4.054e-05,0.0,0 STARLINK-5227,1 54181U 22141AA  23111.82274869  .00004054  00000-0  27263-3 0  9999,2 54181  53.2170  50.4008 0001090  86.3962 273.7155 15.08845139 26912,6917.865,95.437,540.484,538.976,0.0
54181.0,STARLINK-5227,PAYLOAD,2023-04-22 05:17:04,15.08853523,0.000123,53.217,48.6173,86.0206,274.0927,0.0006137,9.496e-05,0.0,0 STARLINK-5227,1 54181U 22141AA  23112.22018560  .00009496  00000-0  61370-3 0  9990,2 54181  53.2170  48.6173 0001230  86.0206 274.0927 15.08853523 26971,6917.839,95.437,540.555,538.853,0.0
54181.0,STARLINK-5227,PAYLOAD,2023-04-23 05:07:50,15.08855488,0.0001143,53.2163,44.157,82.4736,277.6386,0.00033999,5.129e-05,0.0,0 STARLINK-5227,1 54181U 22141AA  23113.21377925  .00005129  00000-0  33999-3 0  9998,2 54181  53.2163  44.1570 0001143  82.4736 277.6386 15.08855488 27124,6917.833,95.437,540.489,538.907,0.0
54181.0,STARLINK-5227,PAYLOAD,2023-04-24 04:58:37,15.08875079,0.0001579,53.2166,39.6941,97.4946,262.6225,0.00088739,0.00013877,0.0,0 STARLINK-5227,1 54181U 22141AA  23114.20737377  .00013877  00000-0  88739-3 0  9990,2 54181  53.2166  39.6941 0001579  97.4946 262.6225 15.08875079 27270,6917.773,95.435,540.73,538.546,0.0
54181.0,STARLINK-5227,PAYLOAD,2023-04-25 01:38:36,15.08884691,6.21e-05,53.2168,35.8311,82.3361,277.7701,0.0010984,0.00017258,0.0,0 STARLINK-5227,1 54181U 22141AA  23115.06847338  .00017258  00000-0  10984-2 0  9997,2 54181  53.2168  35.8311 0000621  82.3361 277.7701 15.08884691 27638,6917.744,95.435,540.038,539.179,0.0
54181.0,STARLINK-5227,PAYLOAD,2023-04-26 01:29:25,15.08780629,0.0001259,53.2177,31.3699,77.1141,282.9992,-0.0012892,-0.00020713,0.0,0 STARLINK-5227,1 54181U 22141AA  23116.06209850 -.00020713  00000-0 -12892-2 0  9991,2 54181  53.2177  31.3699 0001259  77.1141 282.9992 15.08780629 27551,6918.062,95.441,540.798,539.056,0.0
54181.0,STARLINK-5227,PAYLOAD,2023-04-27 12:27:56,15.08839779,0.0001123,53.2168,24.8295,90.6911,269.421,0.0009769,0.00015293,0.0,0 STARLINK-5227,1 54181U 22141AA  23117.51940409  .00015293  00000-0  97690-3 0  9999,2 54181  53.2168  24.8295 0001123  90.6911 269.4210 15.08839779 28000,6917.881,95.438,540.523,538.969,0.0
54181.0,STARLINK-5227,PAYLOAD,2023-04-27 18:49:28,15.08875472,0.0001273,53.2161,23.6404,92.3892,267.7246,0.0020939,0.00033226,0.0,0 STARLINK-5227,1 54181U 22141AA  23117.78436051  .00033226  00000-0  20939-2 0  9998,2 54181  53.2161  23.6404 0001273  92.3892 267.7246 15.08875472 28049,6917.772,95.435,540.518,538.756,0.0
54181.0,STARLINK-5227,PAYLOAD,2023-04-28 12:18:42,15.08852682,0.0001153,53.2163,20.3696,91.5809,268.5315,5.7224e-05,6.23e-06,0.0,0 STARLINK-5227,1 54181U 22141AA  23118.51299188  .00000623  00000-0  57224-4 0  9992,2 54181  53.2163  20.3696 0001153  91.5809 268.5315 15.08852682 28150,6917.842,95.437,540.504,538.909,0.0
54181.0,STARLINK-5227,PAYLOAD,2023-04-29 05:47:56,15.0885371,9.57e-05,53.2163,17.0987,93.7825,266.3277,0.0014369,0.00022663,0.0,0 STARLINK-5227,1 54181U 22141AA  23119.24162997  .00022663  00000-0  14369-2 0  9999,2 54181  53.2163  17.0987 0000957  93.7825 266.3277 15.08853710 28032,6917.838,95.437,540.366,539.041,0.0
54181.0,STARLINK-5227,PAYLOAD,2023-04-30 02:27:57,15.08859297,8.85e-05,53.2168,13.233,85.3758,274.7335,0.0015212,0.00024018,0.0,0 STARLINK-5227,1 54181U 22141AA  23120.10275112  .00024018  00000-0  15212-2 0  9994,2 54181  53.2168  13.2330 0000885  85.3758 274.7335 15.08859297 28392,6917.821,95.436,540.299,539.074,0.0
54181.0,STARLINK-5227,PAYLOAD,2023-04-30 19:57:12,15.08847132,8.46e-05,53.2169,9.9616,91.6736,268.4353,0.00095552,0.00014955,0.0,0 STARLINK-5227,1 54181U 22141AA  23120.83139330  .00014955  00000-0  95552-3 0  9990,2 54181  53.2169   9.9616 0000846  91.6736 268.4353 15.08847132 28503,6917.859,95.437,540.309,539.138,0.0
54181.0,STARLINK-5227,PAYLOAD,2023-04-30 21:32:35,15.08846671,7.71e-05,53.2171,9.6645,90.593,269.515,0.00098431,0.00015415,0.0,0 STARLINK-5227,1 54181U 22141AA  23120.89763317  .00015415  00000-0  98431-3 0  9995,2 54181  53.2171   9.6645 0000771  90.5930 269.5150 15.08846671 28285,6917.86,95.437,540.258,539.192,0.0
54181.0,STARLINK-5227,PAYLOAD,2023-05-01 21:23:22,15.08849687,0.0001044,53.2179,5.2059,64.0513,296.0587,0.00054411,8.385e-05,0.0,0 STARLINK-5227,1 54181U 22141AA  23121.89123330  .00008385  00000-0  54411-3 0  9999,2 54181  53.2179   5.2059 0001044  64.0513 296.0587 15.08849687 28662,6917.851,95.437,540.438,538.994,0.0
54181.0,STARLINK-5227,PAYLOAD,2023-05-02 02:09:31,15.08850622,0.0001144,53.2175,4.3114,88.1214,271.9909,0.00037513,5.689e-05,0.0,0 STARLINK-5227,1 54181U 22141AA  23122.08995054  .00005689  00000-0  37513-3 0  9999,2 54181  53.2175   4.3114 0001144  88.1214 271.9909 15.08850622 28465,6917.848,95.437,540.504,538.922,0.0
54181.0,STARLINK-5227,PAYLOAD,2023-05-02 19:38:46,15.08846611,0.0001246,53.2164,1.038,112.246,247.8664,0.00015506,2.181e-05,0.0,0 STARLINK-5227,1 54181U 22141AA  23122.81858847  .00002181  00000-0  15506-3 0  9990,2 54181  53.2164   1.0380 0001246 112.2460 247.8664 15.08846611 28808,6917.86,95.437,540.587,538.863,0.0
54181.0,STARLINK-5227,PAYLOAD,2023-05-02 21:14:09,15.08847519,0.0001253,53.2166,0.7407,113.2898,246.8226,0.00015684,2.21e-05,0.0,0 STARLINK-5227,1 54181U 22141AA  23122.88482763  .00002210  00000-0  15684-3 0  9997,2 54181  53.2166   0.7407 0001253 113.2898 246.8226 15.08847519 28586,6917.857,95.437,540.589,538.856,0.0
54181.0,STARLINK-5227,PAYLOAD,2023-05-03 08:21:51,15.08843186,0.0001091,53.2168,358.6636,101.2768,258.8346,0.0001008,1.317e-05,0.0,0 STARLINK-5227,1 54181U 22141AA  23123.34850958  .00001317  00000-0  10080-3 0  9996,2 54181  53.2168 358.6636 0001091 101.2768 258.8346 15.08843186 28650,6917.871,95.437,540.49,538.981,0.0
54181.0,STARLINK-5227,PAYLOAD,2023-05-03 19:29:33,15.08831263,9.76e-05,53.2156,356.5826,105.0363,255.0737,-0.00020698,-3.579e-05,0.0,0 STARLINK-5227,1 54181U 22141AA  23123.81219507 -.00003579  00000-0 -20698-3 0  9997,2 54181  53.2156 356.5826 0000976 105.0363 255.0737 15.08831263 28958,6917.907,95.438,540.447,539.097,0.0
54181.0,STARLINK-5227,PAYLOAD,2023-05-03 21:04:56,15.08831253,0.000105,53.2165,356.2814,92.9758,267.1354,-9.7921e-05,-1.845e-05,0.0,0 STARLINK-5227,1 54181U 22141AA  23123.87843601 -.00001845  00000-0 -97921-4 0  9999,2 54181  53.2165 356.2814 0001050  92.9758 267.1354 15.08831253 28732,6917.907,95.438,540.499,539.046,0.0
54181.0,STARLINK-5227,PAYLOAD,2023-05-04 08:12:38,15.08849,9.5e-05,53.2162,354.2032,97.2753,262.8347,0.0001974,2.856e-05,0.0,0 STARLINK-5227,1 54181U 22141AA  23124.34210755  .00002856  00000-0  19740-3 0  9993,2 54181  53.2162 354.2032 0000950  97.2753 262.8347 15.08849000 29037,6917.853,95.437,540.375,539.061,0.0
54181.0,STARLINK-5227,PAYLOAD,2023-05-04 20:55:44,15.08831651,0.0001409,53.2174,351.826,98.0333,262.0819,-8.5488e-05,-1.648e-05,0.0,0 STARLINK-5227,1 54181U 22141AA  23124.87203873 -.00001648  00000-0 -85488-4 0  9997,2 54181  53.2174 351.8260 0001409  98.0333 262.0819 15.08831651 29117,6917.906,95.438,540.746,538.796,0.0
54181.0,STARLINK-5227,PAYLOAD,2023-05-05 01:41:53,15.08840881,0.0001188,53.2162,350.9307,99.3149,260.7977,2.7916e-05,1.56e-06,0.0,0 STARLINK-5227,1 54181U 22141AA  23125.07075655  .00000156  00000-0  27916-4 0  9998,2 54181  53.2162 350.9307 0001188  99.3149 260.7977 15.08840881 29147,6917.878,95.437,540.565,538.921,0.0
